{"fetched_at":"2026-03-30T13:17:50Z","count":15418,"tles":[{"name":"STARLINK-4695","line1":"1 53718U 22107U   26087.66079724  .00001167  00000+0  91421-4 0  9995","line2":"2 53718  53.2175 169.2214 0001325  93.7346 266.3798 15.08843252197261","category":"Starlink"}]}